{"type": "FeatureCollection", "features": [ {"type": "Feature", "properties": {"norad_id": 66889, "name": "STARLINK-35852", "group": "last-30-days", "lat": 23.28332843818215, "lon": 37.79912432812353, "alt_km": 360.2320008784973, "timestamp": "2025-12-23T16:57:11.062764+00:00", "meta": {"OBJECT_NAME": "STARLINK-35852", "OBJECT_ID": "2025-283M", "EPOCH": "2025-12-23T06:00:00.999648", "MEAN_MOTION": 15.7041048, "ECCENTRICITY": 0.0001104, "INCLINATION": 53.1591, "RA_OF_ASC_NODE": 21.226, "ARG_OF_PERICENTER": 80.9684, "MEAN_ANOMALY": 248.821, "EPHEMERIS_TYPE": 0, "CLASSIFICATION_TYPE": "U", "NORAD_CAT_ID": 66889, "ELEMENT_SET_NO": 999, "REV_AT_EPOCH": 411, "BSTAR": -0.017993378, "MEAN_MOTION_DOT": -0.01982287, "MEAN_MOTION_DDOT": 0}, "tle": {"line1": "1 66889U 25283M   25357.25001157 -.01982287  00000+0 -17993-1 0  9998", "line2": "2 66889  53.1591  21.2260 0001104  80.9684 248.8210 15.70410480  4118"}}, "geometry": {"type": "Point", "coordinates": [37.79912432812353, 23.28332843818215]}}, {"type": "Feature", "properties": {"norad_id": 66890, "name": "STARLINK-35885", "group": "last-30-days", "lat": 24.7309759224892, "lon": 39.1757137490446, "alt_km": 360.0913628590888, "timestamp": "2025-12-23T16:57:11.062774+00:00", "meta": {"OBJECT_NAME": "STARLINK-35885", "OBJECT_ID": "2025-283N", "EPOCH": "2025-12-23T06:00:00.999648", "MEAN_MOTION": 15.70414882, "ECCENTRICITY": 0.00010549, "INCLINATION": 53.1588, "RA_OF_ASC_NODE": 21.2223, "ARG_OF_PERICENTER": 92.1653, "MEAN_ANOMALY": 239.5399, "EPHEMERIS_TYPE": 0, "CLASSIFICATION_TYPE": "U", "NORAD_CAT_ID": 66890, "ELEMENT_SET_NO": 999, "REV_AT_EPOCH": 411, "BSTAR": -0.018046569, "MEAN_MOTION_DOT": -0.01987741, "MEAN_MOTION_DDOT": 0}, "tle": {"line1": "1 66890U 25283N   25357.25001157 -.01987741  00000+0 -18047-1 0  9991", "line2": "2 66890  53.1588  21.2223 0001054  92.1653 239.5399 15.70414882  4115"}}, "geometry": {"type": "Point", "coordinates": [39.1757137490446, 24.7309759224892]}}, {"type": "Feature", "properties": {"norad_id": 66891, "name": "STARLINK-35855", "group": "last-30-days", "lat": 26.16511483041586, "lon": 40.583616016058635, "alt_km": 359.8044164491612, "timestamp": "2025-12-23T16:57:11.062784+00:00", "meta": {"OBJECT_NAME": "STARLINK-35855", "OBJECT_ID": "2025-283P", "EPOCH": "2025-12-23T06:00:00.999648", "MEAN_MOTION": 15.70409724, "ECCENTRICITY": 0.00010684, "INCLINATION": 53.1589, "RA_OF_ASC_NODE": 21.2184, "ARG_OF_PERICENTER": 89.0067, "MEAN_ANOMALY": 244.619, "EPHEMERIS_TYPE": 0, "CLASSIFICATION_TYPE": "U", "NORAD_CAT_ID": 66891, "ELEMENT_SET_NO": 999, "REV_AT_EPOCH": 411, "BSTAR": -0.017999554, "MEAN_MOTION_DOT": -0.01982804, "MEAN_MOTION_DDOT": 0}, "tle": {"line1": "1 66891U 25283P   25357.25001157 -.01982804  00000+0 -18000-1 0  9996", "line2": "2 66891  53.1589  21.2184 0001068  89.0067 244.6190 15.70409724  4117"}}, "geometry": {"type": "Point", "coordinates": [40.583616016058635, 26.16511483041586]}}, {"type": "Feature", "properties": {"norad_id": 66892, "name": "STARLINK-35883", "group": "last-30-days", "lat": 27.58526833750423, "lon": 42.02642633049184, "alt_km": 359.5576737153033, "timestamp": "2025-12-23T16:57:11.062793+00:00", "meta": {"OBJECT_NAME": "STARLINK-35883", "OBJECT_ID": "2025-283Q", "EPOCH": "2025-12-23T06:00:00.999648", "MEAN_MOTION": 15.70411507, "ECCENTRICITY": 0.00010706, "INCLINATION": 53.1591, "RA_OF_ASC_NODE": 21.2144, "ARG_OF_PERICENTER": 90.3044, "MEAN_ANOMALY": 245.2357, "EPHEMERIS_TYPE": 0, "CLASSIFICATION_TYPE": "U", "NORAD_CAT_ID": 66892, "ELEMENT_SET_NO": 999, "REV_AT_EPOCH": 405, "BSTAR": -0.018005281, "MEAN_MOTION_DOT": -0.01983494, "MEAN_MOTION_DDOT": 0}, "tle": {"line1": "1 66892U 25283Q   25357.25001157 -.01983494  00000+0 -18005-1 0  9998", "line2": "2 66892  53.1591  21.2144 0001070  90.3044 245.2357 15.70411507  4057"}}, "geometry": {"type": "Point", "coordinates": [42.02642633049184, 27.58526833750423]}}, {"type": "Feature", "properties": {"norad_id": 66893, "name": "STARLINK-36033", "group": "last-30-days", "lat": 28.99084070483566, "lon": 43.50783654061085, "alt_km": 359.2741092646529, "timestamp": "2025-12-23T16:57:11.062803+00:00", "meta": {"OBJECT_NAME": "STARLINK-36033", "OBJECT_ID": "2025-283R", "EPOCH": "2025-12-23T06:00:00.999648", "MEAN_MOTION": 15.70408984, "ECCENTRICITY": 0.00010462, "INCLINATION": 53.1591, "RA_OF_ASC_NODE": 21.2102, "ARG_OF_PERICENTER": 83.9718, "MEAN_ANOMALY": 253.4885, "EPHEMERIS_TYPE": 0, "CLASSIFICATION_TYPE": "U", "NORAD_CAT_ID": 66893, "ELEMENT_SET_NO": 999, "REV_AT_EPOCH": 411, "BSTAR": -0.017997482, "MEAN_MOTION_DOT": -0.01982531, "MEAN_MOTION_DDOT": 0}, "tle": {"line1": "1 66893U 25283R   25357.25001157 -.01982531  00000+0 -17997-1 0  9999", "line2": "2 66893  53.1591  21.2102 0001046  83.9718 253.4885 15.70408984  4110"}}, "geometry": {"type": "Point", "coordinates": [43.50783654061085, 28.99084070483566]}}, {"type": "Feature", "properties": {"norad_id": 66894, "name": "STARLINK-35718", "group": "last-30-days", "lat": 30.379061272562126, "lon": 45.03019070758559, "alt_km": 359.0320528476277, "timestamp": "2025-12-23T16:57:11.062813+00:00", "meta": {"OBJECT_NAME": "STARLINK-35718", "OBJECT_ID": "2025-283S", "EPOCH": "2025-12-23T06:00:00.999648", "MEAN_MOTION": 15.70409262, "ECCENTRICITY": 0.00010485, "INCLINATION": 53.1591, "RA_OF_ASC_NODE": 21.2069, "ARG_OF_PERICENTER": 85.8285, "MEAN_ANOMALY": 253.546, "EPHEMERIS_TYPE": 0, "CLASSIFICATION_TYPE": "U", "NORAD_CAT_ID": 66894, "ELEMENT_SET_NO": 999, "REV_AT_EPOCH": 411, "BSTAR": -0.017970152, "MEAN_MOTION_DOT": -0.01979898, "MEAN_MOTION_DDOT": 0}, "tle": {"line1": "1 66894U 25283S   25357.25001157 -.01979898  00000+0 -17970-1 0  9993", "line2": "2 66894  53.1591  21.2069 0001048  85.8285 253.5460 15.70409262  4115"}}, "geometry": {"type": "Point", "coordinates": [45.03019070758559, 30.379061272562126]}}, {"type": "Feature", "properties": {"norad_id": 66895, "name": "STARLINK-35971", "group": "last-30-days", "lat": 33.10083908379027, "lon": 48.208043954491735, "alt_km": 358.6538622457065, "timestamp": "2025-12-23T16:57:11.062828+00:00", "meta": {"OBJECT_NAME": "STARLINK-35971", "OBJECT_ID": "2025-283T", "EPOCH": "2025-12-23T06:00:00.999648", "MEAN_MOTION": 15.70410432, "ECCENTRICITY": 9.166e-05, "INCLINATION": 53.1589, "RA_OF_ASC_NODE": 21.1971, "ARG_OF_PERICENTER": 80.5155, "MEAN_ANOMALY": 262.6942, "EPHEMERIS_TYPE": 0, "CLASSIFICATION_TYPE": "U", "NORAD_CAT_ID": 66895, "ELEMENT_SET_NO": 999, "REV_AT_EPOCH": 411, "BSTAR": -0.017988843, "MEAN_MOTION_DOT": -0.01981701, "MEAN_MOTION_DDOT": 0}, "tle": {"line1": "1 66895U 25283T   25357.25001157 -.01981701  00000+0 -17989-1 0  9990", "line2": "2 66895  53.1589  21.1971 0000916  80.5155 262.6942 15.70410432  4112"}}, "geometry": {"type": "Point", "coordinates": [48.208043954491735, 33.10083908379027]}}, {"type": "Feature", "properties": {"norad_id": 66896, "name": "STARLINK-35791", "group": "last-30-days", "lat": 31.75407331513567, "lon": 46.60000828325775, "alt_km": 359.0402875331847, "timestamp": "2025-12-23T16:57:11.062838+00:00", "meta": {"OBJECT_NAME": "STARLINK-35791", "OBJECT_ID": "2025-283U", "EPOCH": "2025-12-23T06:00:00.999648", "MEAN_MOTION": 15.70329176, "ECCENTRICITY": 5.905e-05, "INCLINATION": 53.1591, "RA_OF_ASC_NODE": 21.2014, "ARG_OF_PERICENTER": 81.2567, "MEAN_ANOMALY": 260.0941, "EPHEMERIS_TYPE": 0, "CLASSIFICATION_TYPE": "U", "NORAD_CAT_ID": 66896, "ELEMENT_SET_NO": 999, "REV_AT_EPOCH": 411, "BSTAR": -0.017168764, "MEAN_MOTION_DOT": -0.01895569, "MEAN_MOTION_DDOT": 0}, "tle": {"line1": "1 66896U 25283U   25357.25001157 -.01895569  00000+0 -17169-1 0  9997", "line2": "2 66896  53.1591  21.2014 0000590  81.2567 260.0941 15.70329176  4113"}}, "geometry": {"type": "Point", "coordinates": [46.60000828325775, 31.75407331513567]}}, {"type": "Feature", "properties": {"norad_id": 66897, "name": "STARLINK-36079", "group": "last-30-days", "lat": 34.42950108639288, "lon": 49.87062604465322, "alt_km": 358.41069069300556, "timestamp": "2025-12-23T16:57:11.062850+00:00", "meta": {"OBJECT_NAME": "STARLINK-36079", "OBJECT_ID": "2025-283V", "EPOCH": "2025-12-23T06:00:00.999648", "MEAN_MOTION": 15.7040875, "ECCENTRICITY": 9.625e-05, "INCLINATION": 53.1592, "RA_OF_ASC_NODE": 21.1938, "ARG_OF_PERICENTER": 82.0569, "MEAN_ANOMALY": 263.0711, "EPHEMERIS_TYPE": 0, "CLASSIFICATION_TYPE": "U", "NORAD_CAT_ID": 66897, "ELEMENT_SET_NO": 999, "REV_AT_EPOCH": 411, "BSTAR": -0.017973168, "MEAN_MOTION_DOT": -0.01980088, "MEAN_MOTION_DDOT": 0}, "tle": {"line1": "1 66897U 25283V   25357.25001157 -.01980088  00000+0 -17973-1 0  9992", "line2": "2 66897  53.1592  21.1938 0000962  82.0569 263.0711 15.70408750  4117"}}, "geometry": {"type": "Point", "coordinates": [49.87062604465322, 34.42950108639288]}}, {"type": "Feature", "properties": {"norad_id": 66898, "name": "STARLINK-36065", "group": "last-30-days", "lat": 35.73374330596403, "lon": 51.58437674315292, "alt_km": 358.0569816591287, "timestamp": "2025-12-23T16:57:11.062860+00:00", "meta": {"OBJECT_NAME": "STARLINK-36065", "OBJECT_ID": "2025-283W", "EPOCH": "2025-12-23T06:00:00.999648", "MEAN_MOTION": 15.704094, "ECCENTRICITY": 0.00010522, "INCLINATION": 53.1593, "RA_OF_ASC_NODE": 21.1896, "ARG_OF_PERICENTER": 79.3573, "MEAN_ANOMALY": 267.6844, "EPHEMERIS_TYPE": 0, "CLASSIFICATION_TYPE": "U", "NORAD_CAT_ID": 66898, "ELEMENT_SET_NO": 999, "REV_AT_EPOCH": 411, "BSTAR": -0.01798105, "MEAN_MOTION_DOT": -0.0198097, "MEAN_MOTION_DDOT": 0}, "tle": {"line1": "1 66898U 25283W   25357.25001157 -.01980970  00000+0 -17981-1 0  9992", "line2": "2 66898  53.1593  21.1896 0001052  79.3573 267.6844 15.70409400  4117"}}, "geometry": {"type": "Point", "coordinates": [51.58437674315292, 35.73374330596403]}}]}